QIANFAN-105             
1 66047U 25233Q   25322.70300744  .00000309  00000+0  14319-3 0  9999
2 66047  88.9965  64.8031 0017070 112.9796 247.3196 14.18125135  4616
QIANFAN-106             
1 66048U 25233R   25321.99866583  .00000423  00000+0  19808-3 0  9993
2 66048  88.9986  64.8743 0017868 120.8923 239.4026 14.18400517  4518
QIANFAN-107             
1 66049U 25233S   25322.63119538  .00000531  00000+0  24628-3 0  9993
2 66049  88.9964  64.8104 0017936 111.3246 248.9861 14.19201326  4605
QIANFAN-108             
1 66050U 25233T   25322.56174851  .00000462  00000+0  21736-3 0  9996
2 66050  88.9964  64.8188 0017013 112.8571 247.4416 14.18247564  4593
